{"type": "FeatureCollection", "features": [ {"type": "Feature", "properties": {"norad_id": 35885, "name": "COSMOS 2251 DEB", "group": "cosmos-2251-debris", "lat": -65.78205695901302, "lon": 158.9493759974338, "alt_km": 783.9278088371902, "timestamp": "2025-12-10T05:46:14.223483+00:00", "meta": {"OBJECT_NAME": "COSMOS 2251 DEB", "OBJECT_ID": "1993-036ATY", "EPOCH": "2025-12-06T15:25:19.901280", "MEAN_MOTION": 14.37501399, "ECCENTRICITY": 0.0022973, "INCLINATION": 74.0277, "RA_OF_ASC_NODE": 306.0211, "ARG_OF_PERICENTER": 28.0952, "MEAN_ANOMALY": 332.1436, "EPHEMERIS_TYPE": 0, "CLASSIFICATION_TYPE": "U", "NORAD_CAT_ID": 35885, "ELEMENT_SET_NO": 999, "REV_AT_EPOCH": 64928, "BSTAR": 0.00059498548, "MEAN_MOTION_DOT": 1.761e-05, "MEAN_MOTION_DDOT": 0}, "tle": {"line1": "1 35885U 93036ATY 25340.64259145  .00001761  00000+0  59499-3 0  9993", "line2": "2 35885  74.0277 306.0211 0022973  28.0952 332.1436 14.37501399649283"}}, "geometry": {"type": "Point", "coordinates": [158.9493759974338, -65.78205695901302]}}, {"type": "Feature", "properties": {"norad_id": 35888, "name": "COSMOS 2251 DEB", "group": "cosmos-2251-debris", "lat": 17.383860390910392, "lon": 6.568026225466577, "alt_km": 713.7284724051633, "timestamp": "2025-12-10T05:46:14.223494+00:00", "meta": {"OBJECT_NAME": "COSMOS 2251 DEB", "OBJECT_ID": "1993-036AUB", "EPOCH": "2025-12-09T09:55:48.931392", "MEAN_MOTION": 14.58301404, "ECCENTRICITY": 0.00483487, "INCLINATION": 74.0337, "RA_OF_ASC_NODE": 2.9984, "ARG_OF_PERICENTER": 136.1554, "MEAN_ANOMALY": 224.3465, "EPHEMERIS_TYPE": 0, "CLASSIFICATION_TYPE": "U", "NORAD_CAT_ID": 35888, "ELEMENT_SET_NO": 999, "REV_AT_EPOCH": 86225, "BSTAR": 0.00061999694, "MEAN_MOTION_DOT": 2.885e-05, "MEAN_MOTION_DDOT": 0}, "tle": {"line1": "1 35888U 93036AUB 25343.41376078  .00002885  00000+0  62000-3 0  9999", "line2": "2 35888  74.0337   2.9984 0048348 136.1554 224.3465 14.58301404862251"}}, "geometry": {"type": "Point", "coordinates": [6.568026225466577, 17.383860390910392]}}, {"type": "Feature", "properties": {"norad_id": 35890, "name": "COSMOS 2251 DEB", "group": "cosmos-2251-debris", "lat": 63.791818280968826, "lon": -76.69055720568097, "alt_km": 674.0713998644842, "timestamp": "2025-12-10T05:46:14.223503+00:00", "meta": {"OBJECT_NAME": "COSMOS 2251 DEB", "OBJECT_ID": "1993-036AUD", "EPOCH": "2025-12-08T00:44:22.816032", "MEAN_MOTION": 14.57358592, "ECCENTRICITY": 0.00535586, "INCLINATION": 73.9367, "RA_OF_ASC_NODE": 251.7044, "ARG_OF_PERICENTER": 16.9796, "MEAN_ANOMALY": 343.3143, "EPHEMERIS_TYPE": 0, "CLASSIFICATION_TYPE": "U", "NORAD_CAT_ID": 35890, "ELEMENT_SET_NO": 999, "REV_AT_EPOCH": 65082, "BSTAR": 0.0025122755, "MEAN_MOTION_DOT": 0.00011598, "MEAN_MOTION_DDOT": 0}, "tle": {"line1": "1 35890U 93036AUD 25342.03081963  .00011598  00000+0  25123-2 0  9990", "line2": "2 35890  73.9367 251.7044 0053558  16.9796 343.3143 14.57358592650820"}}, "geometry": {"type": "Point", "coordinates": [-76.69055720568097, 63.791818280968826]}}, {"type": "Feature", "properties": {"norad_id": 35891, "name": "COSMOS 2251 DEB", "group": "cosmos-2251-debris", "lat": 4.441791657501611, "lon": 100.51568396971393, "alt_km": 490.6378939572578, "timestamp": "2025-12-10T05:46:14.223513+00:00", "meta": {"OBJECT_NAME": "COSMOS 2251 DEB", "OBJECT_ID": "1993-036AUE", "EPOCH": "2025-12-07T15:05:39.688512", "MEAN_MOTION": 15.32671371, "ECCENTRICITY": 0.00448916, "INCLINATION": 73.9888, "RA_OF_ASC_NODE": 104.8337, "ARG_OF_PERICENTER": 235.5945, "MEAN_ANOMALY": 124.1012, "EPHEMERIS_TYPE": 0, "CLASSIFICATION_TYPE": "U", "NORAD_CAT_ID": 35891, "ELEMENT_SET_NO": 999, "REV_AT_EPOCH": 67142, "BSTAR": 0.0020729594, "MEAN_MOTION_DOT": 0.00068094, "MEAN_MOTION_DDOT": 0}, "tle": {"line1": "1 35891U 93036AUE 25341.62893158  .00068094  00000+0  20730-2 0  9994", "line2": "2 35891  73.9888 104.8337 0044891 235.5945 124.1012 15.32671371671423"}}, "geometry": {"type": "Point", "coordinates": [100.51568396971393, 4.441791657501611]}}, {"type": "Feature", "properties": {"norad_id": 35895, "name": "COSMOS 2251 DEB", "group": "cosmos-2251-debris", "lat": 58.593398564727735, "lon": 19.92988037329695, "alt_km": 754.7218839908255, "timestamp": "2025-12-10T05:46:14.223523+00:00", "meta": {"OBJECT_NAME": "COSMOS 2251 DEB", "OBJECT_ID": "1993-036AUJ", "EPOCH": "2025-12-09T07:12:30.153600", "MEAN_MOTION": 14.01500361, "ECCENTRICITY": 0.0198792, "INCLINATION": 74.0499, "RA_OF_ASC_NODE": 353.6298, "ARG_OF_PERICENTER": 92.7838, "MEAN_ANOMALY": 269.6066, "EPHEMERIS_TYPE": 0, "CLASSIFICATION_TYPE": "U", "NORAD_CAT_ID": 35895, "ELEMENT_SET_NO": 999, "REV_AT_EPOCH": 58964, "BSTAR": 0.0020252, "MEAN_MOTION_DOT": 3.616e-05, "MEAN_MOTION_DDOT": 0}, "tle": {"line1": "1 35895U 93036AUJ 25343.30034900  .00003616  00000+0  20252-2 0  9995", "line2": "2 35895  74.0499 353.6298 0198792  92.7838 269.6066 14.01500361589642"}}, "geometry": {"type": "Point", "coordinates": [19.92988037329695, 58.593398564727735]}}, {"type": "Feature", "properties": {"norad_id": 35898, "name": "COSMOS 2251 DEB", "group": "cosmos-2251-debris", "lat": 7.651744951790346, "lon": 120.2958613570621, "alt_km": 580.1049844802783, "timestamp": "2025-12-10T05:46:14.223534+00:00", "meta": {"OBJECT_NAME": "COSMOS 2251 DEB", "OBJECT_ID": "1993-036AUM", "EPOCH": "2025-12-09T15:20:01.417920", "MEAN_MOTION": 14.94623361, "ECCENTRICITY": 0.0079232, "INCLINATION": 73.9921, "RA_OF_ASC_NODE": 303.7215, "ARG_OF_PERICENTER": 88.0623, "MEAN_ANOMALY": 87.6524, "EPHEMERIS_TYPE": 0, "CLASSIFICATION_TYPE": "U", "NORAD_CAT_ID": 35898, "ELEMENT_SET_NO": 999, "REV_AT_EPOCH": 66763, "BSTAR": 0.00095523, "MEAN_MOTION_DOT": 0.00010991, "MEAN_MOTION_DDOT": 0}, "tle": {"line1": "1 35898U 93036AUM 25343.63890530  .00010991  00000+0  95523-3 0  9991", "line2": "2 35898  73.9921 303.7215 0079232  88.0623  87.6524 14.94623361667636"}}, "geometry": {"type": "Point", "coordinates": [120.2958613570621, 7.651744951790346]}}, {"type": "Feature", "properties": {"norad_id": 35901, "name": "COSMOS 2251 DEB", "group": "cosmos-2251-debris", "lat": 60.54706199490284, "lon": 58.52611401572734, "alt_km": 538.5528155180782, "timestamp": "2025-12-10T05:46:14.223545+00:00", "meta": {"OBJECT_NAME": "COSMOS 2251 DEB", "OBJECT_ID": "1993-036AUQ", "EPOCH": "2025-12-07T10:36:21.692736", "MEAN_MOTION": 15.06319673, "ECCENTRICITY": 0.00066034, "INCLINATION": 74.0121, "RA_OF_ASC_NODE": 33.7639, "ARG_OF_PERICENTER": 0.5644, "MEAN_ANOMALY": 13.1472, "EPHEMERIS_TYPE": 0, "CLASSIFICATION_TYPE": "U", "NORAD_CAT_ID": 35901, "ELEMENT_SET_NO": 999, "REV_AT_EPOCH": 86047, "BSTAR": 0.0047775116, "MEAN_MOTION_DOT": 0.0007096, "MEAN_MOTION_DDOT": 0}, "tle": {"line1": "1 35901U 93036AUQ 25341.44191774  .00070960  00000+0  47775-2 0  9994", "line2": "2 35901  74.0121  33.7639 0006603   0.5644  13.1472 15.06319673860474"}}, "geometry": {"type": "Point", "coordinates": [58.52611401572734, 60.54706199490284]}}, {"type": "Feature", "properties": {"norad_id": 35902, "name": "COSMOS 2251 DEB", "group": "cosmos-2251-debris", "lat": -9.754070554335811, "lon": -123.71099336393968, "alt_km": 732.9696787791991, "timestamp": "2025-12-10T05:46:14.223566+00:00", "meta": {"OBJECT_NAME": "COSMOS 2251 DEB", "OBJECT_ID": "1993-036AUR", "EPOCH": "2025-12-07T23:58:19.658496", "MEAN_MOTION": 14.26862668, "ECCENTRICITY": 0.01019224, "INCLINATION": 73.9832, "RA_OF_ASC_NODE": 243.186, "ARG_OF_PERICENTER": 358.8404, "MEAN_ANOMALY": 1.2491, "EPHEMERIS_TYPE": 0, "CLASSIFICATION_TYPE": "U", "NORAD_CAT_ID": 35902, "ELEMENT_SET_NO": 999, "REV_AT_EPOCH": 61062, "BSTAR": 0.0016367935, "MEAN_MOTION_DOT": 4.172e-05, "MEAN_MOTION_DDOT": 0}, "tle": {"line1": "1 35902U 93036AUR 25341.99883864  .00004172  00000+0  16368-2 0  9999", "line2": "2 35902  73.9832 243.1860 0101922 358.8404   1.2491 14.26862668610625"}}, "geometry": {"type": "Point", "coordinates": [-123.71099336393968, -9.754070554335811]}}, {"type": "Feature", "properties": {"norad_id": 35905, "name": "COSMOS 2251 DEB", "group": "cosmos-2251-debris", "lat": 15.069323029488244, "lon": -139.6911901922888, "alt_km": 558.3503526748109, "timestamp": "2025-12-10T05:46:14.223577+00:00", "meta": {"OBJECT_NAME": "COSMOS 2251 DEB", "OBJECT_ID": "1993-036AUU", "EPOCH": "2025-12-09T08:52:40.693152", "MEAN_MOTION": 14.98948103, "ECCENTRICITY": 0.0090867, "INCLINATION": 74.0312, "RA_OF_ASC_NODE": 217.6533, "ARG_OF_PERICENTER": 298.4996, "MEAN_ANOMALY": 60.7061, "EPHEMERIS_TYPE": 0, "CLASSIFICATION_TYPE": "U", "NORAD_CAT_ID": 35905, "ELEMENT_SET_NO": 999, "REV_AT_EPOCH": 88532, "BSTAR": 0.00069223157, "MEAN_MOTION_DOT": 9.099e-05, "MEAN_MOTION_DDOT": 0}, "tle": {"line1": "1 35905U 93036AUU 25343.36991543  .00009099  00000+0  69223-3 0  9991", "line2": "2 35905  74.0312 217.6533 0090867 298.4996  60.7061 14.98948103885328"}}, "geometry": {"type": "Point", "coordinates": [-139.6911901922888, 15.069323029488244]}}, {"type": "Feature", "properties": {"norad_id": 35959, "name": "COSMOS 2251 DEB", "group": "cosmos-2251-debris", "lat": 9.097560402632878, "lon": -40.73247995423517, "alt_km": 765.7853165617526, "timestamp": "2025-12-10T05:46:14.223588+00:00", "meta": {"OBJECT_NAME": "COSMOS 2251 DEB", "OBJECT_ID": "1993-036AUZ", "EPOCH": "2025-12-09T16:20:00.715776", "MEAN_MOTION": 14.34132745, "ECCENTRICITY": 0.0021434, "INCLINATION": 74.0323, "RA_OF_ASC_NODE": 317.6642, "ARG_OF_PERICENTER": 39.0649, "MEAN_ANOMALY": 321.2045, "EPHEMERIS_TYPE": 0, "CLASSIFICATION_TYPE": "U", "NORAD_CAT_ID": 35959, "ELEMENT_SET_NO": 999, "REV_AT_EPOCH": 84884, "BSTAR": 0.00022588, "MEAN_MOTION_DOT": 6.08e-06, "MEAN_MOTION_DDOT": 0}, "tle": {"line1": "1 35959U 93036AUZ 25343.68056384  .00000608  00000+0  22588-3 0  9990", "line2": "2 35959  74.0323 317.6642 0021434  39.0649 321.2045 14.34132745848849"}}, "geometry": {"type": "Point", "coordinates": [-40.73247995423517, 9.097560402632878]}}]}